CTC1_L_00174001-01
1 10000U 25728OL  26075.70031250  .00000000  00000+0  00000-0 0  9992
2 10000  60.0000   0.0000 0000000   0.0000   0.0000 13.89609395    13
CTC1_L_00174001-02
1 10001U 25523RL  26075.70031250  .00000000  00000+0  00000-0 0  9996
2 10001  60.0000   0.0000 0000000   0.0000  90.0000 13.89609395    13
CTC1_L_00174001-03
1 10002U 22276VU  26075.70031250  .00000000  00000+0  00000-0 0  9999
2 10002  60.0000   0.0000 0000000   0.0000 180.0000 13.89609395    14
CTC1_L_00174001-04
1 10003U 23363VK  26075.70031250  .00000000  00000+0  00000-0 0  9998
2 10003  60.0000   0.0000 0000000   0.0000 270.0000 13.89609395    15
CTC1_L_00174002-01
1 10004U 22244LE  26075.70031250  .00000000  00000+0  00000-0 0  9996
2 10004  60.0000  12.0000 0000000   0.0000  12.0000 13.89609395    13
CTC1_L_00174002-02
1 10005U 22473YO  26075.70031250  .00000000  00000+0  00000-0 0  9991
2 10005  60.0000  12.0000 0000000   0.0000 102.0000 13.89609395    14
CTC1_L_00174002-03
1 10006U 26059QN  26075.70031250  .00000000  00000+0  00000-0 0  9996
2 10006  60.0000  12.0000 0000000   0.0000 192.0000 13.89609395    14
CTC1_L_00174002-04
1 10007U 24473UN  26075.70031250  .00000000  00000+0  00000-0 0  9995
2 10007  60.0000  12.0000 0000000   0.0000 282.0000 13.89609395    15
CTC1_L_00174003-01
1 10008U 22668RF  26075.70031250  .00000000  00000+0  00000-0 0  9990
2 10008  60.0000  24.0000 0000000   0.0000  24.0000 13.89609395    13
CTC1_L_00174003-02
1 10009U 24403BQ  26075.70031250  .00000000  00000+0  00000-0 0  9990
2 10009  60.0000  24.0000 0000000   0.0000 114.0000 13.89609395    14
CTC1_L_00174003-03
1 10010U 24522FD  26075.70031250  .00000000  00000+0  00000-0 0  9994
2 10010  60.0000  24.0000 0000000   0.0000 204.0000 13.89609395    16
CTC1_L_00174003-04
1 10011U 23961SJ  26075.70031250  .00000000  00000+0  00000-0 0  9991
2 10011  60.0000  24.0000 0000000   0.0000 294.0000 13.89609395    16
CTC1_L_00174004-01
1 10012U 24816WN  26075.70031250  .00000000  00000+0  00000-0 0  9992
2 10012  60.0000  36.0000 0000000   0.0000  36.0000 13.89609395    14
CTC1_L_00174004-02
1 10013U 23612YE  26075.70031250  .00000000  00000+0  00000-0 0  9996
2 10013  60.0000  36.0000 0000000   0.0000 126.0000 13.89609395    15
CTC1_L_00174004-03
1 10014U 24770XG  26075.70031250  .00000000  00000+0  00000-0 0  9993
2 10014  60.0000  36.0000 0000000   0.0000 216.0000 13.89609395    16
CTC1_L_00174004-04
1 10015U 24527OS  26075.70031250  .00000000  00000+0  00000-0 0  9994
2 10015  60.0000  36.0000 0000000   0.0000 306.0000 13.89609395    17
CTC1_L_00174005-01
1 10016U 26970GZ  26075.70031250  .00000000  00000+0  00000-0 0  9999
2 10016  60.0000  48.0000 0000000   0.0000  48.0000 13.89609395    14
CTC1_L_00174005-02
1 10017U 22933D   26075.70031250  .00000000  00000+0  00000-0 0  9995
2 10017  60.0000  48.0000 0000000   0.0000 138.0000 13.89609395    15
CTC1_L_00174005-03
1 10018U 22687NJ  26075.70031250  .00000000  00000+0  00000-0 0  9992
2 10018  60.0000  48.0000 0000000   0.0000 228.0000 13.89609395    16
CTC1_L_00174005-04
1 10019U 24580VU  26075.70031250  .00000000  00000+0  00000-0 0  9997
2 10019  60.0000  48.0000 0000000   0.0000 318.0000 13.89609395    17
CTC1_L_00174006-01
1 10020U 25038FQ  26075.70031250  .00000000  00000+0  00000-0 0  9998
2 10020  60.0000  60.0000 0000000   0.0000  60.0000 13.89609395    17
CTC1_L_00174006-02
1 10021U 23758SU  26075.70031250  .00000000  00000+0  00000-0 0  9996
2 10021  60.0000  60.0000 0000000   0.0000 150.0000 13.89609395    18
CTC1_L_00174006-03
1 10022U 23203QB  26075.70031250  .00000000  00000+0  00000-0 0  9992
2 10022  60.0000  60.0000 0000000   0.0000 240.0000 13.89609395    19
CTC1_L_00174006-04
1 10023U 23087UX  26075.70031250  .00000000  00000+0  00000-0 0  9993
2 10023  60.0000  60.0000 0000000   0.0000 330.0000 13.89609395    10
CTC1_L_00174007-01
1 10024U 24442WX  26075.70031250  .00000000  00000+0  00000-0 0  9990
2 10024  60.0000  72.0000 0000000   0.0000  72.0000 13.89609395    17
CTC1_L_00174007-02
1 10025U 23994IH  26075.70031250  .00000000  00000+0  00000-0 0  9992
2 10025  60.0000  72.0000 0000000   0.0000 162.0000 13.89609395    18
CTC1_L_00174007-03
1 10026U 23692NG  26075.70031250  .00000000  00000+0  00000-0 0  9998
2 10026  60.0000  72.0000 0000000   0.0000 252.0000 13.89609395    19
CTC1_L_00174007-04
1 10027U 25847E   26075.70031250  .00000000  00000+0  00000-0 0  9993
2 10027  60.0000  72.0000 0000000   0.0000 342.0000 13.89609395    10
CTC1_L_00174008-01
1 10028U 23665PF  26075.70031250  .00000000  00000+0  00000-0 0  9990
2 10028  60.0000  84.0000 0000000   0.0000  84.0000 13.89609395    17
CTC1_L_00174008-02
1 10029U 26860GI  26075.70031250  .00000000  00000+0  00000-0 0  9991
2 10029  60.0000  84.0000 0000000   0.0000 174.0000 13.89609395    18
CTC1_L_00174008-03
1 10030U 22935IL  26075.70031250  .00000000  00000+0  00000-0 0  9992
2 10030  60.0000  84.0000 0000000   0.0000 264.0000 13.89609395    10
CTC1_L_00174008-04
1 10031U 22890JI  26075.70031250  .00000000  00000+0  00000-0 0  9993
2 10031  60.0000  84.0000 0000000   0.0000 354.0000 13.89609395    11
CTC1_L_00174009-01
1 10032U 22039DB  26075.70031250  .00000000  00000+0  00000-0 0  9999
2 10032  60.0000  96.0000 0000000   0.0000  96.0000 13.89609395    18
CTC1_L_00174009-02
1 10033U 23412XI  26075.70031250  .00000000  00000+0  00000-0 0  9996
2 10033  60.0000  96.0000 0000000   0.0000 186.0000 13.89609395    19
CTC1_L_00174009-03
1 10034U 25899DA  26075.70031250  .00000000  00000+0  00000-0 0  9998
2 10034  60.0000  96.0000 0000000   0.0000 276.0000 13.89609395    10
CTC1_L_00174009-04
1 10035U 26005NV  26075.70031250  .00000000  00000+0  00000-0 0  9999
2 10035  60.0000  96.0000 0000000   0.0000   6.0000 13.89609395    12
CTC1_L_00174010-01
1 10036U 26147GF  26075.70031250  .00000000  00000+0  00000-0 0  9997
2 10036  60.0000 108.0000 0000000   0.0000 108.0000 13.89609395    10
CTC1_L_00174010-02
1 10037U 26952XC  26075.70031250  .00000000  00000+0  00000-0 0  9992
2 10037  60.0000 108.0000 0000000   0.0000 198.0000 13.89609395    10
CTC1_L_00174010-03
1 10038U 25125BU  26075.70031250  .00000000  00000+0  00000-0 0  9994
2 10038  60.0000 108.0000 0000000   0.0000 288.0000 13.89609395    11
CTC1_L_00174010-04
1 10039U 26451PH  26075.70031250  .00000000  00000+0  00000-0 0  9998
2 10039  60.0000 108.0000 0000000   0.0000  18.0000 13.89609395    13
CTC1_L_00174011-01
1 10040U 26918FU  26075.70031250  .00000000  00000+0  00000-0 0  9998
2 10040  60.0000 120.0000 0000000   0.0000 120.0000 13.89609395    13
CTC1_L_00174011-02
1 10041U 26682PW  26075.70031250  .00000000  00000+0  00000-0 0  9997
2 10041  60.0000 120.0000 0000000   0.0000 210.0000 13.89609395    14
CTC1_L_00174011-03
1 10042U 25137SF  26075.70031250  .00000000  00000+0  00000-0 0  9992
2 10042  60.0000 120.0000 0000000   0.0000 300.0000 13.89609395    15
CTC1_L_00174011-04
1 10043U 25682GK  26075.70031250  .00000000  00000+0  00000-0 0  9998
2 10043  60.0000 120.0000 0000000   0.0000  30.0000 13.89609395    16
CTC1_L_00174012-01
1 10044U 26747AI  26075.70031250  .00000000  00000+0  00000-0 0  9992
2 10044  60.0000 132.0000 0000000   0.0000 132.0000 13.89609395    13
CTC1_L_00174012-02
1 10045U 23609OR  26075.70031250  .00000000  00000+0  00000-0 0  9997
2 10045  60.0000 132.0000 0000000   0.0000 222.0000 13.89609395    14
CTC1_L_00174012-03
1 10046U 23233YG  26075.70031250  .00000000  00000+0  00000-0 0  9991
2 10046  60.0000 132.0000 0000000   0.0000 312.0000 13.89609395    15
CTC1_L_00174012-04
1 10047U 26804PZ  26075.70031250  .00000000  00000+0  00000-0 0  9999
2 10047  60.0000 132.0000 0000000   0.0000  42.0000 13.89609395    16
CTC1_L_00174013-01
1 10048U 26485IA  26075.70031250  .00000000  00000+0  00000-0 0  9995
2 10048  60.0000 144.0000 0000000   0.0000 144.0000 13.89609395    13
CTC1_L_00174013-02
1 10049U 24436PP  26075.70031250  .00000000  00000+0  00000-0 0  9990
2 10049  60.0000 144.0000 0000000   0.0000 234.0000 13.89609395    14
CTC1_L_00174013-03
1 10050U 25509JG  26075.70031250  .00000000  00000+0  00000-0 0  9994
2 10050  60.0000 144.0000 0000000   0.0000 324.0000 13.89609395    16
CTC1_L_00174013-04
1 10051U 24938AA  26075.70031250  .00000000  00000+0  00000-0 0  9990
2 10051  60.0000 144.0000 0000000   0.0000  54.0000 13.89609395    17
CTC1_L_00174014-01
1 10052U 22050XY  26075.70031250  .00000000  00000+0  00000-0 0  9994
2 10052  60.0000 156.0000 0000000   0.0000 156.0000 13.89609395    14
CTC1_L_00174014-02
1 10053U 25376ZR  26075.70031250  .00000000  00000+0  00000-0 0  9999
2 10053  60.0000 156.0000 0000000   0.0000 246.0000 13.89609395    15
CTC1_L_00174014-03
1 10054U 23006TI  26075.70031250  .00000000  00000+0  00000-0 0  9998
2 10054  60.0000 156.0000 0000000   0.0000 336.0000 13.89609395    16
CTC1_L_00174014-04
1 10055U 24878VV  26075.70031250  .00000000  00000+0  00000-0 0  9997
2 10055  60.0000 156.0000 0000000   0.0000  66.0000 13.89609395    17
CTC1_L_00174015-01
1 10056U 25915HU  26075.70031250  .00000000  00000+0  00000-0 0  9991
2 10056  60.0000 168.0000 0000000   0.0000 168.0000 13.89609395    14
CTC1_L_00174015-02
1 10057U 25963TD  26075.70031250  .00000000  00000+0  00000-0 0  9995
2 10057  60.0000 168.0000 0000000   0.0000 258.0000 13.89609395    15
CTC1_L_00174015-03
1 10058U 24224GT  26075.70031250  .00000000  00000+0  00000-0 0  9995
2 10058  60.0000 168.0000 0000000   0.0000 348.0000 13.89609395    16
CTC1_L_00174015-04
1 10059U 23950LY  26075.70031250  .00000000  00000+0  00000-0 0  9991
2 10059  60.0000 168.0000 0000000   0.0000  78.0000 13.89609395    17
CTC1_L_00174016-01
1 10060U 26556QG  26075.70031250  .00000000  00000+0  00000-0 0  9998
2 10060  60.0000 180.0000 0000000   0.0000 180.0000 13.89609395    17
CTC1_L_00174016-02
1 10061U 24985HO  26075.70031250  .00000000  00000+0  00000-0 0  9993
2 10061  60.0000 180.0000 0000000   0.0000 270.0000 13.89609395    18
